OBJECT_NAME,OBJECT_ID,EPOCH,MEAN_MOTION,ECCENTRICITY,INCLINATION,RA_OF_ASC_NODE,ARG_OF_PERICENTER,MEAN_ANOMALY,EPHEMERIS_TYPE,CLASSIFICATION_TYPE,NORAD_CAT_ID,ELEMENT_SET_NO,REV_AT_EPOCH,BSTAR,MEAN_MOTION_DOT,MEAN_MOTION_DDOT
PRAETORIAN SDA_609,2025-203H,2026-06-18T07:26:01.826304,13.84208146,.00068339,81.3050,9.7503,181.3784,178.7355,0,U,65572,999,3885,.11777425E-3,.143E-5,0
PRAETORIAN SDA_610,2025-203J,2026-06-18T01:37:53.160096,13.83851939,.00064736,81.3007,9.9498,186.0221,174.0859,0,U,65573,999,3881,.2377757E-4,.38E-6,0
PRAETORIAN SDA_611,2025-203K,2026-06-18T12:04:26.264064,13.83309012,.00053759,81.3007,9.7130,190.5984,169.5060,0,U,65574,999,3886,.24398454E-3,.28E-5,0
PRAETORIAN SDA_612,2025-203L,2026-06-18T01:22:58.185696,13.85037197,.00090273,81.3033,9.7100,183.4700,176.6396,0,U,65575,999,3883,.10611288E-3,.132E-5,0
PRAETORIAN SDA_613,2025-203M,2026-06-18T12:14:53.812320,13.82765156,.00056349,81.2998,9.7050,180.0484,180.0673,0,U,65576,999,3886,.28709975E-4,.43E-6,0
PRAETORIAN SDA_614,2025-203N,2026-06-17T23:23:34.307232,13.84777941,.00070374,81.3014,9.8650,181.5884,178.5252,0,U,65577,999,3882,.3301173E-5,.16E-6,0
PRAETORIAN SDA_615,2025-203P,2026-06-18T14:27:12.120768,13.84436471,.00090382,81.3021,9.2476,181.2942,178.8193,0,U,65578,999,3890,.14739952E-3,.177E-5,0
PRAETORIAN SDA_616,2025-203Q,2026-06-18T08:35:02.815872,13.83267388,.00052765,81.3063,9.9933,188.0517,172.0556,0,U,65579,999,3884,.13540994E-3,.16E-5,0
PRAETORIAN SDA_617,2025-203R,2026-06-18T12:34:37.992576,13.83150137,.00073397,81.3036,9.6715,180.3244,179.7908,0,U,65580,999,3887,.16858784E-4,.3E-6,0
PRAETORIAN SDA_618,2025-203S,2026-06-18T06:41:45.679488,13.84670108,.00096741,81.3018,9.4764,184.9968,175.1094,0,U,65581,999,3886,.13735059E-3,.166E-5,0
PRAETORIAN SDA_619,2025-203T,2026-06-18T14:30:58.600224,13.83805897,.00082164,81.3041,9.4734,181.5911,178.5221,0,U,65582,999,3952,.13148185E-3,.157E-5,0
PRAETORIAN SDA_620,2025-203U,2026-06-18T11:43:17.671008,13.83618401,.00077133,81.3028,9.6028,177.3783,182.7415,0,U,65583,999,3887,.90868343E-4,.112E-5,0
PRAETORIAN SDA_621,2025-203V,2026-06-18T14:33:32.145120,13.83801426,.00074306,81.3020,9.4106,174.7447,185.3789,0,U,65584,999,3889,.34646995E-4,.5E-6,0
PRAETORIAN SDA_601,2025-203W,2026-06-18T12:08:00.860064,13.83167657,.00053237,81.3036,9.8017,191.5599,168.5435,0,U,65585,999,3886,.36624587E-3,.413E-5,0
NUSANTARA LIMA (NUSANTARA 5),2025-205A,2026-06-17T20:48:01.112256,1.00270924,.0000109,0.0181,103.4558,70.6404,156.8713,0,U,65588,999,272,0,-.363E-5,0
COSMOS 2595 (MOZHAETS 6),2025-206A,2026-06-16T06:27:40.577760,2.14901179,.00656672,64.6391,314.8631,305.1423,54.2276,0,U,65589,999,593,0,-.55E-6,0
COSMOS 2596 [GLONASS-K1],2025-206B,2026-06-18T10:24:28.997280,2.13100598,.00109979,64.6338,314.9413,311.7055,76.8578,0,U,65590,999,594,0,-.57E-6,0
STARLINK-35267,2025-207A,2026-06-18T03:35:21.852672,15.05665149,.00019608,97.3448,236.6094,112.6423,247.5012,0,U,65592,999,4336,.3031473E-3,.4321E-4,0
STARLINK-35269,2025-207B,2026-06-18T10:46:01.524864,15.05657395,.00016365,97.3445,236.9741,113.1315,247.0085,0,U,65593,999,4341,.18055212E-3,.2549E-4,0
STARLINK-35191,2025-207C,2026-06-18T04:47:08.751840,15.05662773,.00012765,97.3443,236.6957,119.0341,241.1015,0,U,65594,999,4321,.21930143E-3,.3109E-4,0
STARLINK-35261,2025-207D,2026-06-18T15:09:12.134880,15.05658813,.00015485,97.3430,237.1852,132.4789,227.6569,0,U,65595,999,4345,.11792612E-3,.1645E-4,0
STARLINK-35253,2025-207E,2026-06-18T11:21:54.304416,15.05659775,.00022523,97.3444,236.9370,135.6623,224.4785,0,U,65596,999,4321,.44688621E-3,.6398E-4,0
STARLINK-35263,2025-207F,2026-06-18T10:57:58.857408,15.05657005,.00018799,97.3449,236.9602,118.2089,241.9328,0,U,65597,999,4342,.19639926E-3,.2778E-4,0
STARLINK-35248,2025-207G,2026-06-18T10:34:04.105056,15.05678037,.00020098,97.3436,236.9844,130.5658,229.5744,0,U,65598,999,4342,.36601596E-3,.5232E-4,0
STARLINK-35245,2025-207H,2026-06-18T11:45:50.408928,15.05654896,.00021273,97.3427,237.0700,130.3697,229.7717,0,U,65599,999,4343,.15201315E-3,.2137E-4,0
STARLINK-35229,2025-207J,2026-06-18T14:41:16.490688,15.05662839,.00018124,97.3446,237.0562,138.6500,221.4865,0,U,65600,999,4344,.32227065E-3,.4597E-4,0
STARLINK-35234,2025-207K,2026-06-18T11:17:54.872736,15.05659369,.00004749,97.3446,236.9425,95.0045,265.1237,0,U,65601,999,4342,.13322829E-3,.1866E-4,0
STARLINK-35255,2025-207L,2026-06-18T10:53:59.474976,15.05658762,.00008686,97.3458,236.9669,134.9370,225.1928,0,U,65602,999,4342,-.14653384E-3,-.2171E-4,0
STARLINK-35250,2025-207M,2026-06-18T10:30:04.687200,15.05659081,.00023476,97.3439,236.9876,120.3671,239.7788,0,U,65603,999,4342,.139957E-3,.1963E-4,0
STARLINK-35251,2025-207N,2026-06-18T11:01:58.045440,15.05660189,.0000426,97.3449,236.9568,102.0807,258.0468,0,U,65604,999,4342,.25344156E-3,.3602E-4,0
